{
  "type": "FeatureCollection",
  "features": [
    {
      "type": "Feature",
      "properties": {
        "norad_id": 36173,
        "name": "FENGYUN 1C DEB",
        "group": "fengyun-1c-debris",
        "lat": 34.34684915189759,
        "lon": -52.74552532043417,
        "alt_km": 860.400620479495,
        "timestamp": "2025-12-22T09:53:37.689483+00:00",
        "meta_object_name": "FENGYUN 1C DEB",
        "meta_object_id": "1999-025DSW",
        "meta_epoch": "2025-12-22T02:59:15.796032",
        "meta_mean_motion": 14.25182833,
        "meta_eccentricity": 0.0147524,
        "meta_inclination": 98.2146,
        "meta_ra_of_asc_node": 312.65,
        "meta_arg_of_pericenter": 157.5208,
        "meta_mean_anomaly": 203.2527,
        "meta_ephemeris_type": 0,
        "meta_classification_type": "U",
        "meta_norad_cat_id": 36173,
        "meta_element_set_no": 999,
        "meta_rev_at_epoch": 59224,
        "meta_bstar": 0.00017938,
        "meta_mean_motion_dot": 4.32e-06,
        "meta_mean_motion_ddot": 0,
        "tle_line1": "1 36173U 99025DSW 25356.12448838  .00000432  00000+0  17938-3 0  9993",
        "tle_line2": "2 36173  98.2146 312.6500 0147524 157.5208 203.2527 14.25182833592240"
      },
      "geometry": {
        "type": "Point",
        "coordinates": [
          -52.74552532043417,
          34.34684915189759
        ]
      }
    },
    {
      "type": "Feature",
      "properties": {
        "norad_id": 36180,
        "name": "FENGYUN 1C DEB",
        "group": "fengyun-1c-debris",
        "lat": -37.53268139694321,
        "lon": -126.94199699394812,
        "alt_km": 952.0429947282564,
        "timestamp": "2025-12-22T09:53:37.689493+00:00",
        "meta_object_name": "FENGYUN 1C DEB",
        "meta_object_id": "1999-025DTD",
        "meta_epoch": "2025-12-05T21:21:22.276224",
        "meta_mean_motion": 14.20680074,
        "meta_eccentricity": 0.02106275,
        "meta_inclination": 98.4572,
        "meta_ra_of_asc_node": 43.7979,
        "meta_arg_of_pericenter": 50.8055,
        "meta_mean_anomaly": 311.1621,
        "meta_ephemeris_type": 0,
        "meta_classification_type": "U",
        "meta_norad_cat_id": 36180,
        "meta_element_set_no": 999,
        "meta_rev_at_epoch": 70486,
        "meta_bstar": 0.00091841135,
        "meta_mean_motion_dot": 2.432e-05,
        "meta_mean_motion_ddot": 0,
        "tle_line1": "1 36180U 99025DTD 25339.88984116  .00002432  00000+0  91841-3 0  9996",
        "tle_line2": "2 36180  98.4572  43.7979 0210627  50.8055 311.1621 14.20680074704867"
      },
      "geometry": {
        "type": "Point",
        "coordinates": [
          -126.94199699394812,
          -37.53268139694321
        ]
      }
    },
    {
      "type": "Feature",
      "properties": {
        "norad_id": 36182,
        "name": "FENGYUN 1C DEB",
        "group": "fengyun-1c-debris",
        "lat": -44.86396036949323,
        "lon": 95.2988978033866,
        "alt_km": 798.3548418128212,
        "timestamp": "2025-12-22T09:53:37.689502+00:00",
        "meta_object_name": "FENGYUN 1C DEB",
        "meta_object_id": "1999-025DTF",
        "meta_epoch": "2025-12-21T06:04:05.893536",
        "meta_mean_motion": 14.34784187,
        "meta_eccentricity": 0.0022294,
        "meta_inclination": 99.0897,
        "meta_ra_of_asc_node": 283.2478,
        "meta_arg_of_pericenter": 52.3157,
        "meta_mean_anomaly": 308.0044,
        "meta_ephemeris_type": 0,
        "meta_classification_type": "U",
        "meta_norad_cat_id": 36182,
        "meta_element_set_no": 999,
        "meta_rev_at_epoch": 88079,
        "meta_bstar": 0.0010883654,
        "meta_mean_motion_dot": 3.048e-05,
        "meta_mean_motion_ddot": 0,
        "tle_line1": "1 36182U 99025DTF 25355.25284599  .00003048  00000+0  10884-2 0  9996",
        "tle_line2": "2 36182  99.0897 283.2478 0022294  52.3157 308.0044 14.34784187880798"
      },
      "geometry": {
        "type": "Point",
        "coordinates": [
          95.2988978033866,
          -44.86396036949323
        ]
      }
    },
    {
      "type": "Feature",
      "properties": {
        "norad_id": 36186,
        "name": "FENGYUN 1C DEB",
        "group": "fengyun-1c-debris",
        "lat": -62.12112602822428,
        "lon": -121.145726987059,
        "alt_km": 521.6518874257035,
        "timestamp": "2025-12-22T09:53:37.689512+00:00",
        "meta_object_name": "FENGYUN 1C DEB",
        "meta_object_id": "1999-025DTK",
        "meta_epoch": "2025-12-15T21:11:23.031744",
        "meta_mean_motion": 15.12863238,
        "meta_eccentricity": 0.00117449,
        "meta_inclination": 98.9868,
        "meta_ra_of_asc_node": 213.7545,
        "meta_arg_of_pericenter": 332.6772,
        "meta_mean_anomaly": 45.2682,
        "meta_ephemeris_type": 0,
        "meta_classification_type": "U",
        "meta_norad_cat_id": 36186,
        "meta_element_set_no": 999,
        "meta_rev_at_epoch": 61618,
        "meta_bstar": 0.0071053274,
        "meta_mean_motion_dot": 0.00127217,
        "meta_mean_motion_ddot": 0,
        "tle_line1": "1 36186U 99025DTK 25349.88290546  .00127217  00000+0  71053-2 0  9991",
        "tle_line2": "2 36186  98.9868 213.7545 0011744 332.6772  45.2682 15.12863238616186"
      },
      "geometry": {
        "type": "Point",
        "coordinates": [
          -121.145726987059,
          -62.12112602822428
        ]
      }
    },
    {
      "type": "Feature",
      "properties": {
        "norad_id": 36188,
        "name": "FENGYUN 1C DEB",
        "group": "fengyun-1c-debris",
        "lat": 63.54143196688739,
        "lon": -65.14268095252984,
        "alt_km": 715.8212489819616,
        "timestamp": "2025-12-22T09:53:37.689522+00:00",
        "meta_object_name": "FENGYUN 1C DEB",
        "meta_object_id": "1999-025DTM",
        "meta_epoch": "2025-12-16T00:29:05.104608",
        "meta_mean_motion": 14.60761478,
        "meta_eccentricity": 0.00478894,
        "meta_inclination": 98.5849,
        "meta_ra_of_asc_node": 90.5626,
        "meta_arg_of_pericenter": 294.3883,
        "meta_mean_anomaly": 65.2322,
        "meta_ephemeris_type": 0,
        "meta_classification_type": "U",
        "meta_norad_cat_id": 36188,
        "meta_element_set_no": 999,
        "meta_rev_at_epoch": 88100,
        "meta_bstar": 0.0017582447,
        "meta_mean_motion_dot": 8.674e-05,
        "meta_mean_motion_ddot": 0,
        "tle_line1": "1 36188U 99025DTM 25350.02019797  .00008674  00000+0  17582-2 0  9990",
        "tle_line2": "2 36188  98.5849  90.5626 0047889 294.3883  65.2322 14.60761478881003"
      },
      "geometry": {
        "type": "Point",
        "coordinates": [
          -65.14268095252984,
          63.54143196688739
        ]
      }
    },
    {
      "type": "Feature",
      "properties": {
        "norad_id": 36198,
        "name": "FENGYUN 1C DEB",
        "group": "fengyun-1c-debris",
        "lat": 19.5876231975692,
        "lon": -151.58101814930149,
        "alt_km": 844.0918715533417,
        "timestamp": "2025-12-22T09:53:37.689532+00:00",
        "meta_object_name": "FENGYUN 1C DEB",
        "meta_object_id": "1999-025DTX",
        "meta_epoch": "2025-12-21T07:33:45.647424",
        "meta_mean_motion": 14.07940861,
        "meta_eccentricity": 0.0096445,
        "meta_inclination": 98.6204,
        "meta_ra_of_asc_node": 24.2769,
        "meta_arg_of_pericenter": 91.323,
        "meta_mean_anomaly": 269.8991,
        "meta_ephemeris_type": 0,
        "meta_classification_type": "U",
        "meta_norad_cat_id": 36198,
        "meta_element_set_no": 999,
        "meta_rev_at_epoch": 63708,
        "meta_bstar": 0.0012597,
        "meta_mean_motion_dot": 2.192e-05,
        "meta_mean_motion_ddot": 0,
        "tle_line1": "1 36198U 99025DTX 25355.31511166  .00002192  00000+0  12597-2 0  9995",
        "tle_line2": "2 36198  98.6204  24.2769 0096445  91.3230 269.8991 14.07940861637082"
      },
      "geometry": {
        "type": "Point",
        "coordinates": [
          -151.58101814930149,
          19.5876231975692
        ]
      }
    },
    {
      "type": "Feature",
      "properties": {
        "norad_id": 36199,
        "name": "FENGYUN 1C DEB",
        "group": "fengyun-1c-debris",
        "lat": 44.54246887412775,
        "lon": 8.839041984414134,
        "alt_km": 722.9792818531705,
        "timestamp": "2025-12-22T09:53:37.689541+00:00",
        "meta_object_name": "FENGYUN 1C DEB",
        "meta_object_id": "1999-025DTY",
        "meta_epoch": "2025-12-20T20:44:03.107040",
        "meta_mean_motion": 14.29660404,
        "meta_eccentricity": 0.0092625,
        "meta_inclination": 98.2888,
        "meta_ra_of_asc_node": 15.6138,
        "meta_arg_of_pericenter": 43.7189,
        "meta_mean_anomaly": 317.1282,
        "meta_ephemeris_type": 0,
        "meta_classification_type": "U",
        "meta_norad_cat_id": 36199,
        "meta_element_set_no": 999,
        "meta_rev_at_epoch": 65096,
        "meta_bstar": 0.00019303,
        "meta_mean_motion_dot": 4.77e-06,
        "meta_mean_motion_ddot": 0,
        "tle_line1": "1 36199U 99025DTY 25354.86392485  .00000477  00000+0  19303-3 0  9993",
        "tle_line2": "2 36199  98.2888  15.6138 0092625  43.7189 317.1282 14.29660404650969"
      },
      "geometry": {
        "type": "Point",
        "coordinates": [
          8.839041984414134,
          44.54246887412775
        ]
      }
    }
  ]
}